TRANSIT 16 [?]          
1 02807U 67048A   23028.06469877  .00000126  00000+0  18168-3 0  9999
2 02807  89.6584  28.7438 0018357 271.8247 154.6808 13.50356255741577
TRANSIT 17 [?]          
1 02965U 67092A   23028.23452314  .00000118  00000+0  15774-3 0  9991
2 02965  89.2323 106.0317 0048768  45.2552   8.1504 13.53068110729458
TRANSIT 18 [?]          
1 03133U 68012A   23028.17565741  .00000141  00000+0  20087-3 0  9993
2 03133  90.0099 271.7355 0074225 331.8093 196.0760 13.51196746703941
NNSS 19 [?]             
1 04507U 70067A   23027.84971175  .00000141  00000+0  18322-3 0  9996
2 04507  89.9316 237.7232 0174189  94.3331 267.7744 13.50875628580840
NNSS O-20 [?]           
1 06909U 73081A   23028.24631242  .00000241  00000+0  23929-3 0  9996
2 06909  89.8216 273.1975 0155986 344.4093  15.2293 13.70750993660081
TRANSAT [?]             
1 10457U 77106A   23027.81506972  .00000095  00000+0  13662-3 0  9994
2 10457  89.6742 115.2332 0024228 344.6339 131.3000 13.48707712225908
NOVA I [?]              
1 12458U 81044A   23027.77105066  .00000049  00000+0  93873-4 0  9999
2 12458  89.8822 105.1820 0016298 117.2863 358.9836 13.23089158 13017
NOVA 3 [?]              
1 15362U 84110A   23027.85328538  .00000081  00000+0  17194-3 0  9990
2 15362  90.1008  69.1344 0031302 347.1448 187.0416 13.22855213848171
OSCAR 30 [?]            
1 15935U 85066A   23027.68225032  .00000077  00000+0  12177-3 0  9994
2 15935  90.1780  81.8310 0169414 165.4140 309.3588 13.35789747824337
OSCAR 24 [?]            
1 15936U 85066B   23028.14346238  .00000093  00000+0  15194-3 0  9999
2 15936  90.1747  73.7404 0169808 169.9417 246.3940 13.35648851826534
POLAR BEAR [?]          
1 17070U 86088A   23028.52464149  .00000113  00000+0  10628-3 0  9999
2 17070  89.5721 227.4234 0040599  47.0156  14.5232 13.74907444815872
OSCAR 27 [?]            
1 18361U 87080A   23028.47798401  .00000106  00000+0  16332-3 0  9991
2 18361  90.3348  41.7521 0103941 350.3833   9.5322 13.44599485734806
OSCAR 29 [?]            
1 18362U 87080B   23027.63945307  .00000069  00000+0  10099-3 0  9990
2 18362  90.3361  42.0748 0106411  13.5083 112.0712 13.44184052734013
OSCAR 23 [?]            
1 19070U 88033A   23027.85383751  .00000080  00000+0  14684-3 0  9996
2 19070  90.3277 343.9074 0188477 219.4536 193.6721 13.27549225683222
OSCAR 32 [?]            
1 19071U 88033B   23027.89233417  .00000077  00000+0  14039-3 0  9994
2 19071  90.3279 343.9993 0187094 207.0208 208.3513 13.27728049683336
NOVA 11 [?]             
1 19223U 88052A   23027.92858128  .00000045  00000+0  86331-4 0  9990
2 19223  89.9748  80.3240 0031382  30.2308 143.6840 13.22767713670686
OSCAR 25 [?]            
1 19419U 88074A   23027.87075433  .00000125  00000+0  20012-3 0  9997
2 19419  90.0064  18.0317 0096476   2.1959  64.4581 13.42328862685548
OSCAR 31 [?]            
1 19420U 88074B   23028.03196503  .00000117  00000+0  18627-3 0  9990
2 19420  90.0076  18.2323 0094443 355.9079  68.7196 13.42335505685941
